IRIDIUM 171             
1 43929U 19002H   25351.27480568 -.00000450  00000+0 -16779-3 0  9998
2 43929  86.3970  69.9076 0002284  97.9270 262.2185 14.34215290362883
IRIDIUM 170             
1 43930U 19002J   25351.28360315  .00000925  00000+0  14280-3 0  9998
2 43930  86.6084  69.6153 0002317  90.8140 269.3343 14.72248519372496
IRIDIUM 167             
1 43931U 19002K   25351.26846211  .00000172  00000+0  54501-4 0  9996
2 43931  86.3966  69.6449 0002512 103.9023 256.2452 14.34217614362882
IRIDIUM 181             
1 56726U 23068S   25351.32479713  .00000369  00000+0  10353-3 0  9999
2 56726  86.4515 132.8109 0002375  84.0767 276.0704 14.43310249136209
IRIDIUM 177             
1 56727U 23068T   25351.20387132  .00001105  00000+0  14196-3 0  9998
2 56727  86.1965  55.2099 0002253  85.3595 274.7883 14.80218438139440
IRIDIUM 174             
1 56728U 23068U   25351.27122619  .00000938  00000+0  14486-3 0  9998
2 56728  86.6092  69.7492 0002050  88.6144 271.5308 14.72242012139257
IRIDIUM 178             
1 56729U 23068V   25351.32812545  .00001336  00000+0  17230-3 0  9992
2 56729  86.6541 101.3822 0002506  96.2908 263.8599 14.80248291139469
IRIDIUM 179             
1 56730U 23068W   25351.32278801  .00001267  00000+0  16334-3 0  9992
2 56730  86.6782 109.8212 0002400  89.0045 271.1452 14.80236129139466
